ALOS-4 (DAICHI-4)       
1 60182U 24123A   24203.82530236  .00004741  00000+0  63953-3 0  9993
2 60182  97.9223 299.9925 0001916  94.3706 265.7724 14.79585430  3060
